NORAD_CAT_ID,OBJECT_NAME,OBJECT_TYPE,EPOCH,MEAN_MOTION,ECCENTRICITY,INCLINATION,RA_OF_ASC_NODE,ARG_OF_PERICENTER,MEAN_ANOMALY,BSTAR,MEAN_MOTION_DOT,MEAN_MOTION_DDOT,TLE_LINE0,TLE_LINE1,TLE_LINE2,SEMIMAJOR_AXIS,PERIOD,APOGEE,PERIGEE,DECAYED
53640.0,STARLINK-4597,PAYLOAD,2024-08-08 12:17:14,15.08839049,0.000138,53.216,299.4142,105.4328,254.6817,0.001396,0.00021999,0.0,0 STARLINK-4597,1 53640U 22104BE  24221.51196991  .00021999  00000-0  13960-2 0  9990,2 53640  53.2160 299.4142 0001380 105.4328 254.6817 15.08839049108945,6917.883,95.438,540.703,538.794,0.0
53640.0,STARLINK-4597,PAYLOAD,2024-08-08 21:49:32,15.08865226,0.0001283,53.2159,297.6313,94.2664,265.8475,0.001865,0.00029539,0.0,0 STARLINK-4597,1 53640U 22104BE  24221.90940616  .00029539  00000-0  18650-2 0  9993,2 53640  53.2159 297.6313 0001283  94.2664 265.8475 15.08865226109001,6917.803,95.436,540.556,538.781,0.0
53640.0,STARLINK-4597,PAYLOAD,2024-08-09 05:46:28,15.08843718,0.0002318,53.2156,296.1442,83.0109,277.1146,0.00089575,0.00013998,0.0,0 STARLINK-4597,1 53640U 22104BE  24222.24061206  .00013998  00000-0  89575-3 0  9997,2 53640  53.2156 296.1442 0002318  83.0109 277.1146 15.08843718108030,6917.869,95.437,541.338,538.13,0.0
53640.0,STARLINK-4597,PAYLOAD,2024-08-09 12:08:01,15.0883969,0.0001602,53.2163,294.9577,99.8378,260.2795,0.00055042,8.483e-05,0.0,0 STARLINK-4597,1 53640U 22104BE  24222.50557147  .00008483  00000-0  55042-3 0  9995,2 53640  53.2163 294.9577 0001602  99.8378 260.2795 15.08839690108072,6917.881,95.438,540.855,538.638,0.0
53640.0,STARLINK-4597,PAYLOAD,2024-08-10 11:58:48,15.08836685,0.0001553,53.2156,290.4918,84.476,275.6409,3.2718e-05,2.33e-06,0.0,0 STARLINK-4597,1 53640U 22104BE  24223.49917821  .00000233  00000-0  32718-4 0  9994,2 53640  53.2156 290.4918 0001553  84.4760 275.6409 15.08836685108224,6917.891,95.438,540.83,538.681,0.0
53640.0,STARLINK-4597,PAYLOAD,2024-08-10 13:34:11,15.08837121,0.0001285,53.2148,290.1926,114.5584,245.5542,0.00034691,5.237e-05,0.0,0 STARLINK-4597,1 53640U 22104BE  24223.56541625  .00005237  00000-0  34691-3 0  9997,2 53640  53.2148 290.1926 0001285 114.5584 245.5542 15.08837121109256,6917.889,95.438,540.643,538.865,0.0
53640.0,STARLINK-4597,PAYLOAD,2024-08-10 21:31:07,15.08862212,0.0001598,53.2155,288.7035,61.8802,298.2351,0.0010185,0.00015968,0.0,0 STARLINK-4597,1 53640U 22104BE  24223.89661380  .00015968  00000-0  10185-2 0  9997,2 53640  53.2155 288.7035 0001598  61.8802 298.2351 15.08862212108286,6917.812,95.436,540.783,538.572,0.0
53640.0,STARLINK-4597,PAYLOAD,2024-08-11 10:14:13,15.08838926,0.0001751,53.2153,286.3328,82.3899,277.7292,0.00060566,9.364e-05,0.0,0 STARLINK-4597,1 53640U 22104BE  24224.42654124  .00009364  00000-0  60566-3 0  9997,2 53640  53.2153 286.3328 0001751  82.3899 277.7292 15.08838926108368,6917.884,95.438,540.96,538.537,0.0
53640.0,STARLINK-4597,PAYLOAD,2024-08-11 21:21:54,15.08876265,0.0001715,53.215,284.249,79.2248,280.8937,0.001926,0.00030528,0.0,0 STARLINK-4597,1 53640U 22104BE  24224.89021417  .00030528  00000-0  19260-2 0  9991,2 53640  53.2150 284.2490 0001715  79.2248 280.8937 15.08876265109455,6917.77,95.435,540.821,538.448,0.0
53640.0,STARLINK-4597,PAYLOAD,2024-08-12 10:04:59,15.08850846,0.0001171,53.2151,281.867,105.2193,254.8928,0.002069,0.00032803,0.0,0 STARLINK-4597,1 53640U 22104BE  24225.42013347  .00032803  00000-0  20690-2 0  9991,2 53640  53.2151 281.8670 0001171 105.2193 254.8928 15.08850846108518,6917.847,95.437,540.522,538.902,0.0
53640.0,STARLINK-4597,PAYLOAD,2024-08-13 09:55:46,15.08789118,0.0001687,53.2157,277.4087,116.694,243.4225,0.00040631,6.175e-05,0.0,0 STARLINK-4597,1 53640U 22104BE  24226.41373715  .00006175  00000-0  40631-3 0  9990,2 53640  53.2157 277.4087 0001687 116.6940 243.4225 15.08789118108668,6918.036,95.441,541.068,538.734,0.0
53640.0,STARLINK-4597,PAYLOAD,2024-08-13 21:03:30,15.08800741,0.000173,53.2149,275.3267,112.9982,247.1192,0.001192,0.00018713,0.0,0 STARLINK-4597,1 53640U 22104BE  24226.87743330  .00018713  00000-0  11920-2 0  9993,2 53640  53.2149 275.3267 0001730 112.9982 247.1192 15.08800741109751,6918.0,95.44,541.062,538.669,0.0
53640.0,STARLINK-4597,PAYLOAD,2024-08-14 03:25:03,15.08814192,0.0001648,53.2136,274.1374,111.208,248.9088,0.0013545,0.00021319,0.0,0 STARLINK-4597,1 53640U 22104BE  24227.14239845  .00021319  00000-0  13545-2 0  9996,2 53640  53.2136 274.1374 0001648 111.2080 248.9088 15.08814192108771,6917.959,95.439,540.964,538.684,0.0
53640.0,STARLINK-4597,PAYLOAD,2024-08-14 09:46:36,15.08820846,0.0001663,53.2158,272.9473,111.6834,248.4335,0.0010502,0.00016457,0.0,0 STARLINK-4597,1 53640U 22104BE  24227.40736173  .00016457  00000-0  10502-2 0  9998,2 53640  53.2158 272.9473 0001663 111.6834 248.4335 15.08820846109830,6917.939,95.439,540.954,538.653,0.0
53640.0,STARLINK-4597,PAYLOAD,2024-08-15 09:37:23,15.08848483,0.0001583,53.2151,268.4875,111.7105,248.4056,0.00087596,0.00013684,0.0,0 STARLINK-4597,1 53640U 22104BE  24228.40096447  .00013684  00000-0  87596-3 0  9999,2 53640  53.2151 268.4875 0001583 111.7105 248.4056 15.08848483109985,6917.854,95.437,540.815,538.624,0.0
53640.0,STARLINK-4597,PAYLOAD,2024-08-15 19:09:41,15.08858035,0.0001564,53.2149,266.7033,111.8839,248.2319,0.00080753,0.00012594,0.0,0 STARLINK-4597,1 53640U 22104BE  24228.79840059  .00012594  00000-0  80753-3 0  9994,2 53640  53.2149 266.7033 0001564 111.8839 248.2319 15.08858035109022,6917.825,95.436,540.772,538.608,0.0
53640.0,STARLINK-4597,PAYLOAD,2024-08-16 09:28:09,15.08872557,0.0001553,53.215,264.0273,112.8408,247.2748,0.00081495,0.00012717,0.0,0 STARLINK-4597,1 53640U 22104BE  24229.39455046  .00012717  00000-0  81495-3 0  9990,2 53640  53.2150 264.0273 0001553 112.8408 247.2748 15.08872557110136,6917.781,95.435,540.72,538.572,0.0
53640.0,STARLINK-4597,PAYLOAD,2024-08-17 07:43:32,15.08860228,0.0001414,53.2148,259.8638,113.6505,246.4636,0.00020305,2.947e-05,0.0,0 STARLINK-4597,1 53640U 22104BE  24230.32190202  .00002947  00000-0  20305-3 0  9992,2 53640  53.2148 259.8638 0001414 113.6505 246.4636 15.08860228109253,6917.819,95.436,540.662,538.705,0.0
53640.0,STARLINK-4597,PAYLOAD,2024-08-18 01:12:46,15.08851763,0.0001232,53.2144,256.5954,88.6286,271.4847,0.00029242,4.371e-05,0.0,0 STARLINK-4597,1 53640U 22104BE  24231.05054113  .00004371  00000-0  29242-3 0  9995,2 53640  53.2144 256.5954 0001232  88.6286 271.4847 15.08851763109367,6917.844,95.437,540.562,538.857,0.0
53640.0,STARLINK-4597,PAYLOAD,2024-08-18 05:58:56,15.08844933,0.0001473,53.2145,255.7006,113.107,247.0077,5.3752e-05,5.68e-06,0.0,0 STARLINK-4597,1 53640U 22104BE  24231.24926109  .00000568  00000-0  53752-4 0  9997,2 53640  53.2145 255.7006 0001473 113.1070 247.0077 15.08844933110412,6917.865,95.437,540.749,538.711,0.0
53640.0,STARLINK-4597,PAYLOAD,2024-08-18 10:45:05,15.08850748,0.000151,53.2147,254.8071,106.9481,253.1677,-5.9507e-06,-3.83e-06,0.0,0 STARLINK-4597,1 53640U 22104BE  24231.44797891 -.00000383  00000-0 -59507-5 0  9995,2 53640  53.2147 254.8071 0001510 106.9481 253.1677 15.08850748110442,6917.848,95.437,540.757,538.668,0.0
53640.0,STARLINK-4597,PAYLOAD,2024-08-19 09:00:29,15.08838447,0.0001377,53.2155,250.643,100.5912,259.5235,7.3399e-05,8.8e-06,0.0,0 STARLINK-4597,1 53640U 22104BE  24232.37534542  .00000880  00000-0  73399-4 0  9994,2 53640  53.2155 250.6430 0001377 100.5912 259.5235 15.08838447109567,6917.885,95.438,540.703,538.798,0.0
53640.0,STARLINK-4597,PAYLOAD,2024-08-20 07:15:53,15.08842988,0.0001359,53.2146,246.4799,98.1985,261.9161,3.6665e-05,2.96e-06,0.0,0 STARLINK-4597,1 53640U 22104BE  24233.30270220  .00000296  00000-0  36665-4 0  9994,2 53640  53.2146 246.4799 0001359  98.1985 261.9161 15.08842988110720,6917.871,95.437,540.676,538.796,0.0
53640.0,STARLINK-4597,PAYLOAD,2024-08-21 03:55:54,15.08839342,0.0001315,53.2142,242.6149,93.7251,266.3891,7.1399e-05,8.49e-06,0.0,0 STARLINK-4597,1 53640U 22104BE  24234.16382346  .00000849  00000-0  71399-4 0  9999,2 53640  53.2142 242.6149 0001315  93.7251 266.3891 15.08839342109831,6917.882,95.438,540.657,538.838,0.0
53640.0,STARLINK-4597,PAYLOAD,2024-08-21 10:17:27,15.08838031,0.0001307,53.2142,241.4255,92.8561,267.2581,5.2438e-05,5.47e-06,0.0,0 STARLINK-4597,1 53640U 22104BE  24234.42878487  .00000547  00000-0  52438-4 0  9992,2 53640  53.2142 241.4255 0001307  92.8561 267.2581 15.08838031110899,6917.886,95.438,540.656,538.847,0.0
